[{"OBJECT_NAME":"STARLINK-35222","OBJECT_ID":"2025-212B","EPOCH":"2026-03-09T22:42:07.468128","MEAN_MOTION":15.30211233,"ECCENTRICITY":0.00015061,"INCLINATION":53.1604,"RA_OF_ASC_NODE":344.4249,"ARG_OF_PERICENTER":66.5759,"MEAN_ANOMALY":293.54,"EPHEMERIS_TYPE":0,"CLASSIFICATION_TYPE":"U","NORAD_CAT_ID":65677,"ELEMENT_SET_NO":999,"REV_AT_EPOCH":2729,"BSTAR":0.00083331215,"MEAN_MOTION_DOT":0.00024411,"MEAN_MOTION_DDOT":0},{"OBJECT_NAME":"OBJECT D","OBJECT_ID":"2024-018D","EPOCH":"2026-03-09T19:55:21.548928","MEAN_MOTION":14.55118189,"ECCENTRICITY":0.03718814,"INCLINATION":58.6682,"RA_OF_ASC_NODE":179.3794,"ARG_OF_PERICENTER":4.8806,"MEAN_ANOMALY":355.5692,"EPHEMERIS_TYPE":0,"CLASSIFICATION_TYPE":"U","NORAD_CAT_ID":58852,"ELEMENT_SET_NO":999,"REV_AT_EPOCH":11155,"BSTAR":0.00065583894,"MEAN_MOTION_DOT":7.104e-5,"MEAN_MOTION_DDOT":0}]
